{"type": "FeatureCollection", "features": [ {"type": "Feature", "properties": {"norad_id": 41785, "name": "ALSAT 1B", "group": "resource", "lat": 0.568067729432674, "lon": -168.4855770231813, "alt_km": 660.3652552907333, "timestamp": "2025-12-26T05:31:12.157335+00:00", "meta": {"OBJECT_NAME": "ALSAT 1B", "OBJECT_ID": "2016-059C", "EPOCH": "2025-12-25T23:48:54.408096", "MEAN_MOTION": 14.72088045, "ECCENTRICITY": 0.00107234, "INCLINATION": 97.7809, "RA_OF_ASC_NODE": 11.2093, "ARG_OF_PERICENTER": 66.4448, "MEAN_ANOMALY": 293.7886, "EPHEMERIS_TYPE": 0, "CLASSIFICATION_TYPE": "U", "NORAD_CAT_ID": 41785, "ELEMENT_SET_NO": 999, "REV_AT_EPOCH": 49509, "BSTAR": 5.2401364e-05, "MEAN_MOTION_DOT": 2.83e-06, "MEAN_MOTION_DDOT": 0}, "tle": {"line1": "1 41785U 16059C   25359.99229639  .00000283  00000+0  52401-4 0  9997", "line2": "2 41785  97.7809  11.2093 0010723  66.4448 293.7886 14.72088045495097"}}, "geometry": {"type": "Point", "coordinates": [-168.4855770231813, 0.568067729432674]}}, {"type": "Feature", "properties": {"norad_id": 41787, "name": "PATHFINDER 1", "group": "resource", "lat": 27.02902216186452, "lon": -1.6395918882003748, "alt_km": 648.1818329790367, "timestamp": "2025-12-26T05:31:12.157345+00:00", "meta": {"OBJECT_NAME": "PATHFINDER 1", "OBJECT_ID": "2016-059E", "EPOCH": "2025-12-25T22:51:01.037376", "MEAN_MOTION": 14.67343683, "ECCENTRICITY": 0.00295568, "INCLINATION": 97.8139, "RA_OF_ASC_NODE": 2.1126, "ARG_OF_PERICENTER": 40.8305, "MEAN_ANOMALY": 319.5107, "EPHEMERIS_TYPE": 0, "CLASSIFICATION_TYPE": "U", "NORAD_CAT_ID": 41787, "ELEMENT_SET_NO": 999, "REV_AT_EPOCH": 49430, "BSTAR": 0.00015203511, "MEAN_MOTION_DOT": 8.17e-06, "MEAN_MOTION_DDOT": 0}, "tle": {"line1": "1 41787U 16059E   25359.95209534  .00000817  00000+0  15204-3 0  9999", "line2": "2 41787  97.8139   2.1126 0029556  40.8305 319.5107 14.67343683494306"}}, "geometry": {"type": "Point", "coordinates": [-1.6395918882003748, 27.02902216186452]}}, {"type": "Feature", "properties": {"norad_id": 41790, "name": "SCATSAT 1", "group": "resource", "lat": -44.194027677559774, "lon": -130.9360372499767, "alt_km": 669.1236530928036, "timestamp": "2025-12-26T05:31:12.157355+00:00", "meta": {"OBJECT_NAME": "SCATSAT 1", "OBJECT_ID": "2016-059H", "EPOCH": "2025-12-25T17:08:45.596832", "MEAN_MOTION": 14.78977295, "ECCENTRICITY": 0.00564601, "INCLINATION": 98.1446, "RA_OF_ASC_NODE": 56.5458, "ARG_OF_PERICENTER": 87.1429, "MEAN_ANOMALY": 273.6242, "EPHEMERIS_TYPE": 0, "CLASSIFICATION_TYPE": "U", "NORAD_CAT_ID": 41790, "ELEMENT_SET_NO": 999, "REV_AT_EPOCH": 7594, "BSTAR": 0.00020774795, "MEAN_MOTION_DOT": 1.519e-05, "MEAN_MOTION_DDOT": 0}, "tle": {"line1": "1 41790U 16059H   25359.71441663  .00001519  00000+0  20775-3 0  9997", "line2": "2 41790  98.1446  56.5458 0056460  87.1429 273.6242 14.78977295 75940"}}, "geometry": {"type": "Point", "coordinates": [-130.9360372499767, -44.194027677559774]}}, {"type": "Feature", "properties": {"norad_id": 41875, "name": "GOKTURK 1A", "group": "resource", "lat": -63.45942459417421, "lon": 55.75813500300727, "alt_km": 692.2183475435259, "timestamp": "2025-12-26T05:31:12.157365+00:00", "meta": {"OBJECT_NAME": "GOKTURK 1A", "OBJECT_ID": "2016-073A", "EPOCH": "2025-12-25T23:28:48.892224", "MEAN_MOTION": 14.62795753, "ECCENTRICITY": 0.0001278, "INCLINATION": 98.1424, "RA_OF_ASC_NODE": 252.1673, "ARG_OF_PERICENTER": 82.3027, "MEAN_ANOMALY": 277.832, "EPHEMERIS_TYPE": 0, "CLASSIFICATION_TYPE": "U", "NORAD_CAT_ID": 41875, "ELEMENT_SET_NO": 999, "REV_AT_EPOCH": 48350, "BSTAR": 0.00018534547, "MEAN_MOTION_DOT": 8.99e-06, "MEAN_MOTION_DDOT": 0}, "tle": {"line1": "1 41875U 16073A   25359.97834366  .00000899  00000+0  18535-3 0  9992", "line2": "2 41875  98.1424 252.1673 0001278  82.3027 277.8320 14.62795753483509"}}, "geometry": {"type": "Point", "coordinates": [55.75813500300727, -63.45942459417421]}}, {"type": "Feature", "properties": {"norad_id": 41877, "name": "RESOURCESAT-2A", "group": "resource", "lat": 78.9355776323641, "lon": -57.830960692879046, "alt_km": 812.7787633900462, "timestamp": "2025-12-26T05:31:12.157375+00:00", "meta": {"OBJECT_NAME": "RESOURCESAT-2A", "OBJECT_ID": "2016-074A", "EPOCH": "2025-12-25T22:18:35.216928", "MEAN_MOTION": 14.21604288, "ECCENTRICITY": 0.00016296, "INCLINATION": 98.7736, "RA_OF_ASC_NODE": 69.7077, "ARG_OF_PERICENTER": 198.2368, "MEAN_ANOMALY": 161.8751, "EPHEMERIS_TYPE": 0, "CLASSIFICATION_TYPE": "U", "NORAD_CAT_ID": 41877, "ELEMENT_SET_NO": 999, "REV_AT_EPOCH": 46968, "BSTAR": -4.2969934e-05, "MEAN_MOTION_DOT": -1.39e-06, "MEAN_MOTION_DDOT": 0}, "tle": {"line1": "1 41877U 16074A   25359.92957427 -.00000139  00000+0 -42970-4 0  9994", "line2": "2 41877  98.7736  69.7077 0001629 198.2368 161.8751 14.21604288469688"}}, "geometry": {"type": "Point", "coordinates": [-57.830960692879046, 78.9355776323641]}}, {"type": "Feature", "properties": {"norad_id": 41948, "name": "CARTOSAT-2D", "group": "resource", "lat": 21.534726389432493, "lon": -119.52508313685696, "alt_km": 505.4674117605473, "timestamp": "2025-12-26T05:31:12.157385+00:00", "meta": {"OBJECT_NAME": "CARTOSAT-2D", "OBJECT_ID": "2017-008A", "EPOCH": "2025-12-25T22:30:12.041568", "MEAN_MOTION": 15.19193653, "ECCENTRICITY": 0.00054519, "INCLINATION": 97.4368, "RA_OF_ASC_NODE": 57.2325, "ARG_OF_PERICENTER": 115.4408, "MEAN_ANOMALY": 244.7391, "EPHEMERIS_TYPE": 0, "CLASSIFICATION_TYPE": "U", "NORAD_CAT_ID": 41948, "ELEMENT_SET_NO": 999, "REV_AT_EPOCH": 49127, "BSTAR": 0.00019843179, "MEAN_MOTION_DOT": 4.109e-05, "MEAN_MOTION_DDOT": 0}, "tle": {"line1": "1 41948U 17008A   25359.93763937  .00004109  00000+0  19843-3 0  9994", "line2": "2 41948  97.4368  57.2325 0005451 115.4408 244.7391 15.19193653491273"}}, "geometry": {"type": "Point", "coordinates": [-119.52508313685696, 21.534726389432493]}}, {"type": "Feature", "properties": {"norad_id": 42063, "name": "SENTINEL-2B", "group": "resource", "lat": 27.594126154546732, "lon": -102.99403132652867, "alt_km": 787.4368300903707, "timestamp": "2025-12-26T05:31:12.157395+00:00", "meta": {"OBJECT_NAME": "SENTINEL-2B", "OBJECT_ID": "2017-013A", "EPOCH": "2025-12-25T22:05:56.192928", "MEAN_MOTION": 14.30815194, "ECCENTRICITY": 0.00011839, "INCLINATION": 98.5697, "RA_OF_ASC_NODE": 72.1809, "ARG_OF_PERICENTER": 89.5515, "MEAN_ANOMALY": 270.5803, "EPHEMERIS_TYPE": 0, "CLASSIFICATION_TYPE": "U", "NORAD_CAT_ID": 42063, "ELEMENT_SET_NO": 999, "REV_AT_EPOCH": 45986, "BSTAR": 1.0555467e-05, "MEAN_MOTION_DOT": -1.6e-07, "MEAN_MOTION_DDOT": 0}, "tle": {"line1": "1 42063U 17013A   25359.92078927 -.00000016  00000+0  10555-4 0  9992", "line2": "2 42063  98.5697  72.1809 0001183  89.5515 270.5803 14.30815194459867"}}, "geometry": {"type": "Point", "coordinates": [-102.99403132652867, 27.594126154546732]}}, {"type": "Feature", "properties": {"norad_id": 42767, "name": "CARTOSAT-2E", "group": "resource", "lat": 66.19608219812, "lon": 40.37414138230108, "alt_km": 502.1682946522151, "timestamp": "2025-12-26T05:31:12.157405+00:00", "meta": {"OBJECT_NAME": "CARTOSAT-2E", "OBJECT_ID": "2017-036C", "EPOCH": "2025-12-25T22:54:05.384736", "MEAN_MOTION": 15.19199034, "ECCENTRICITY": 0.00025401, "INCLINATION": 97.4537, "RA_OF_ASC_NODE": 57.3666, "ARG_OF_PERICENTER": 169.628, "MEAN_ANOMALY": 190.5008, "EPHEMERIS_TYPE": 0, "CLASSIFICATION_TYPE": "U", "NORAD_CAT_ID": 42767, "ELEMENT_SET_NO": 999, "REV_AT_EPOCH": 47184, "BSTAR": 0.00012230974, "MEAN_MOTION_DOT": 2.506e-05, "MEAN_MOTION_DDOT": 0}, "tle": {"line1": "1 42767U 17036C   25359.95422899  .00002506  00000+0  12231-3 0  9999", "line2": "2 42767  97.4537  57.3666 0002540 169.6280 190.5008 15.19199034471848"}}, "geometry": {"type": "Point", "coordinates": [40.37414138230108, 66.19608219812]}}, {"type": "Feature", "properties": {"norad_id": 42920, "name": "FORMOSAT-5", "group": "resource", "lat": 43.778382203461646, "lon": 66.291385165038, "alt_km": 725.4486641727917, "timestamp": "2025-12-26T05:31:12.157415+00:00", "meta": {"OBJECT_NAME": "FORMOSAT-5", "OBJECT_ID": "2017-049A", "EPOCH": "2025-12-25T22:41:41.905824", "MEAN_MOTION": 14.50767971, "ECCENTRICITY": 0.00098478, "INCLINATION": 98.2437, "RA_OF_ASC_NODE": 73.9983, "ARG_OF_PERICENTER": 256.2867, "MEAN_ANOMALY": 103.7232, "EPHEMERIS_TYPE": 0, "CLASSIFICATION_TYPE": "U", "NORAD_CAT_ID": 42920, "ELEMENT_SET_NO": 999, "REV_AT_EPOCH": 44155, "BSTAR": 7.0146501e-05, "MEAN_MOTION_DOT": 2.32e-06, "MEAN_MOTION_DDOT": 0}, "tle": {"line1": "1 42920U 17049A   25359.94562391  .00000232  00000+0  70147-4 0  9990", "line2": "2 42920  98.2437  73.9983 0009847 256.2867 103.7232 14.50767971441559"}}, "geometry": {"type": "Point", "coordinates": [66.291385165038, 43.778382203461646]}}, {"type": "Feature", "properties": {"norad_id": 42969, "name": "SENTINEL-5P", "group": "resource", "lat": 1.7455970749029963, "lon": -61.57438995551431, "alt_km": 829.623508130363, "timestamp": "2025-12-26T05:31:12.157425+00:00", "meta": {"OBJECT_NAME": "SENTINEL-5P", "OBJECT_ID": "2017-064A", "EPOCH": "2025-12-25T17:40:12.396576", "MEAN_MOTION": 14.19520693, "ECCENTRICITY": 0.00010643, "INCLINATION": 98.7802, "RA_OF_ASC_NODE": 298.2061, "ARG_OF_PERICENTER": 90.9871, "MEAN_ANOMALY": 269.1427, "EPHEMERIS_TYPE": 0, "CLASSIFICATION_TYPE": "U", "NORAD_CAT_ID": 42969, "ELEMENT_SET_NO": 999, "REV_AT_EPOCH": 42495, "BSTAR": 6.8608624e-05, "MEAN_MOTION_DOT": 1e-06, "MEAN_MOTION_DDOT": 0}, "tle": {"line1": "1 42969U 17064A   25359.73625459  .00000100  00000+0  68609-4 0  9996", "line2": "2 42969  98.7802 298.2061 0001064  90.9871 269.1427 14.19520693424954"}}, "geometry": {"type": "Point", "coordinates": [-61.57438995551431, 1.7455970749029963]}}]}